CCSDS_OMM_VERS = 2.0
CREATION_DATE  = 
ORIGINATOR     = 

OBJECT_NAME    = COSMOS 1933
OBJECT_ID      = 1988-020A
CENTER_NAME    = EARTH
REF_FRAME      = TEME
TIME_SYSTEM    = UTC
MEAN_ELEMENT_THEORY = SGP/SGP4

EPOCH          = 2025-12-08T17:30:24.892128
MEAN_MOTION    = 15.17060469
ECCENTRICITY   = .0005477
INCLINATION    = 82.5135
RA_OF_ASC_NODE = 340.8412
ARG_OF_PERICENTER = 138.9251
MEAN_ANOMALY   = 221.2395

EPHEMERIS_TYPE = 0
CLASSIFICATION_TYPE = U
NORAD_CAT_ID   = 18958
ELEMENT_SET_NO = 999
REV_AT_EPOCH   = 3643
BSTAR          = .33186E-3
MEAN_MOTION_DOT = .6599E-4
MEAN_MOTION_DDOT = 0

CCSDS_OMM_VERS = 2.0
CREATION_DATE  = 
ORIGINATOR     = 

OBJECT_NAME    = SL-3 R/B
OBJECT_ID      = 1988-032B
CENTER_NAME    = EARTH
REF_FRAME      = TEME
TIME_SYSTEM    = UTC
MEAN_ELEMENT_THEORY = SGP/SGP4

EPOCH          = 2025-12-08T20:13:02.834688
MEAN_MOTION    = 15.18681148
ECCENTRICITY   = .0026293
INCLINATION    = 97.5081
RA_OF_ASC_NODE = 321.5896
ARG_OF_PERICENTER = 186.5974
MEAN_ANOMALY   = 173.4917

EPHEMERIS_TYPE = 0
CLASSIFICATION_TYPE = U
NORAD_CAT_ID   = 19046
ELEMENT_SET_NO = 999
REV_AT_EPOCH   = 3831
BSTAR          = .39586E-3
MEAN_MOTION_DOT = .8215E-4
MEAN_MOTION_DDOT = 0

CCSDS_OMM_VERS = 2.0
CREATION_DATE  = 
ORIGINATOR     = 

OBJECT_NAME    = SL-16 R/B
OBJECT_ID      = 1988-039B
CENTER_NAME    = EARTH
REF_FRAME      = TEME
TIME_SYSTEM    = UTC
MEAN_ELEMENT_THEORY = SGP/SGP4

EPOCH          = 2025-12-08T19:13:27.981120
MEAN_MOTION    = 14.19596203
ECCENTRICITY   = .0019814
INCLINATION    = 71.0153
RA_OF_ASC_NODE = 260.7261
ARG_OF_PERICENTER = 122.9535
MEAN_ANOMALY   = 237.3499

EPHEMERIS_TYPE = 0
CLASSIFICATION_TYPE = U
NORAD_CAT_ID   = 19120
ELEMENT_SET_NO = 999
REV_AT_EPOCH   = 94548
BSTAR          = .11554E-3
MEAN_MOTION_DOT = .196E-5
MEAN_MOTION_DDOT = 0

CCSDS_OMM_VERS = 2.0
CREATION_DATE  = 
ORIGINATOR     = 

OBJECT_NAME    = COSMOS 1953
OBJECT_ID      = 1988-050A
CENTER_NAME    = EARTH
REF_FRAME      = TEME
TIME_SYSTEM    = UTC
MEAN_ELEMENT_THEORY = SGP/SGP4

EPOCH          = 2025-12-08T18:32:09.388032
MEAN_MOTION    = 15.26867988
ECCENTRICITY   = .001386
INCLINATION    = 82.5091
RA_OF_ASC_NODE = 249.5616
ARG_OF_PERICENTER = 83.5354
MEAN_ANOMALY   = 276.7462

EPHEMERIS_TYPE = 0
CLASSIFICATION_TYPE = U
NORAD_CAT_ID   = 19210
ELEMENT_SET_NO = 999
REV_AT_EPOCH   = 2390
BSTAR          = .33586E-3
MEAN_MOTION_DOT = .892E-4
MEAN_MOTION_DDOT = 0

CCSDS_OMM_VERS = 2.0
CREATION_DATE  = 
ORIGINATOR     = 

OBJECT_NAME    = SL-8 R/B
OBJECT_ID      = 1988-053B
CENTER_NAME    = EARTH
REF_FRAME      = TEME
TIME_SYSTEM    = UTC
MEAN_ELEMENT_THEORY = SGP/SGP4

EPOCH          = 2025-12-08T20:31:28.504128
MEAN_MOTION    = 14.38855953
ECCENTRICITY   = .0019073
INCLINATION    = 74.0477
RA_OF_ASC_NODE = 279.8786
ARG_OF_PERICENTER = 125.4678
MEAN_ANOMALY   = 295.4528

EPHEMERIS_TYPE = 0
CLASSIFICATION_TYPE = U
NORAD_CAT_ID   = 19257
ELEMENT_SET_NO = 999
REV_AT_EPOCH   = 96353
BSTAR          = .1918E-3
MEAN_MOTION_DOT = .565E-5
MEAN_MOTION_DDOT = 0

CCSDS_OMM_VERS = 2.0
CREATION_DATE  = 
ORIGINATOR     = 

OBJECT_NAME    = COSMOS 1975
OBJECT_ID      = 1988-093A
CENTER_NAME    = EARTH
REF_FRAME      = TEME
TIME_SYSTEM    = UTC
MEAN_ELEMENT_THEORY = SGP/SGP4

EPOCH          = 2025-12-08T15:37:22.529280
MEAN_MOTION    = 15.26381495
ECCENTRICITY   = .0012673
INCLINATION    = 82.5201
RA_OF_ASC_NODE = 208.9217
ARG_OF_PERICENTER = 125.2689
MEAN_ANOMALY   = 234.9737

EPHEMERIS_TYPE = 0
CLASSIFICATION_TYPE = U
NORAD_CAT_ID   = 19573
ELEMENT_SET_NO = 999
REV_AT_EPOCH   = 551
BSTAR          = .4006E-3
MEAN_MOTION_DOT = .10475E-3
MEAN_MOTION_DDOT = 0

CCSDS_OMM_VERS = 2.0
CREATION_DATE  = 
ORIGINATOR     = 

OBJECT_NAME    = SL-14 R/B
OBJECT_ID      = 1988-093B
CENTER_NAME    = EARTH
REF_FRAME      = TEME
TIME_SYSTEM    = UTC
MEAN_ELEMENT_THEORY = SGP/SGP4

EPOCH          = 2025-12-08T19:27:51.244128
MEAN_MOTION    = 14.85543146
ECCENTRICITY   = .0020268
INCLINATION    = 82.5301
RA_OF_ASC_NODE = 127.3540
ARG_OF_PERICENTER = 342.8467
MEAN_ANOMALY   = 131.4697

EPHEMERIS_TYPE = 0
CLASSIFICATION_TYPE = U
NORAD_CAT_ID   = 19574
ELEMENT_SET_NO = 999
REV_AT_EPOCH   = 98754
BSTAR          = .1162E-3
MEAN_MOTION_DOT = .1031E-4
MEAN_MOTION_DDOT = 0

CCSDS_OMM_VERS = 2.0
CREATION_DATE  = 
ORIGINATOR     = 

OBJECT_NAME    = SL-16 R/B
OBJECT_ID      = 1988-102B
CENTER_NAME    = EARTH
REF_FRAME      = TEME
TIME_SYSTEM    = UTC
MEAN_ELEMENT_THEORY = SGP/SGP4

EPOCH          = 2025-12-08T17:09:14.160672
MEAN_MOTION    = 14.16136600
ECCENTRICITY   = .0013125
INCLINATION    = 70.9998
RA_OF_ASC_NODE = 342.9125
ARG_OF_PERICENTER = 158.7434
MEAN_ANOMALY   = 201.4237

EPHEMERIS_TYPE = 0
CLASSIFICATION_TYPE = U
NORAD_CAT_ID   = 19650
ELEMENT_SET_NO = 999
REV_AT_EPOCH   = 91401
BSTAR          = -.45808E-4
MEAN_MOTION_DOT = -.138E-5
MEAN_MOTION_DDOT = 0

CCSDS_OMM_VERS = 2.0
CREATION_DATE  = 
ORIGINATOR     = 

OBJECT_NAME    = INTERCOSMOS 24
OBJECT_ID      = 1989-080A
CENTER_NAME    = EARTH
REF_FRAME      = TEME
TIME_SYSTEM    = UTC
MEAN_ELEMENT_THEORY = SGP/SGP4

EPOCH          = 2025-12-08T18:31:27.172128
MEAN_MOTION    = 12.59429308
ECCENTRICITY   = .1188777
INCLINATION    = 82.6044
RA_OF_ASC_NODE = 163.5327
ARG_OF_PERICENTER = 143.7215
MEAN_ANOMALY   = 225.0786

EPHEMERIS_TYPE = 0
CLASSIFICATION_TYPE = U
NORAD_CAT_ID   = 20261
ELEMENT_SET_NO = 999
REV_AT_EPOCH   = 65535
BSTAR          = .50217E-3
MEAN_MOTION_DOT = .1725E-4
MEAN_MOTION_DDOT = 0

CCSDS_OMM_VERS = 2.0
CREATION_DATE  = 
ORIGINATOR     = 

OBJECT_NAME    = SL-14 R/B
OBJECT_ID      = 1989-080C
CENTER_NAME    = EARTH
REF_FRAME      = TEME
TIME_SYSTEM    = UTC
MEAN_ELEMENT_THEORY = SGP/SGP4

EPOCH          = 2025-12-08T17:51:24.326784
MEAN_MOTION    = 12.50409304
ECCENTRICITY   = .1230717
INCLINATION    = 82.5934
RA_OF_ASC_NODE = 231.5853
ARG_OF_PERICENTER = 32.7176
MEAN_ANOMALY   = 334.4381

EPHEMERIS_TYPE = 0
CLASSIFICATION_TYPE = U
NORAD_CAT_ID   = 20262
ELEMENT_SET_NO = 999
REV_AT_EPOCH   = 64878
BSTAR          = .2243E-3
MEAN_MOTION_DOT = .763E-5
MEAN_MOTION_DDOT = 0

CCSDS_OMM_VERS = 2.0
CREATION_DATE  = 
ORIGINATOR     = 

OBJECT_NAME    = DELTA 1 R/B
OBJECT_ID      = 1989-089B
CENTER_NAME    = EARTH
REF_FRAME      = TEME
TIME_SYSTEM    = UTC
MEAN_ELEMENT_THEORY = SGP/SGP4

EPOCH          = 2025-12-08T15:20:03.329088
MEAN_MOTION    = 14.50567796
ECCENTRICITY   = .0070355
INCLINATION    = 97.0756
RA_OF_ASC_NODE = 199.5264
ARG_OF_PERICENTER = 51.0398
MEAN_ANOMALY   = 309.7041

EPHEMERIS_TYPE = 0
CLASSIFICATION_TYPE = U
NORAD_CAT_ID   = 20323
ELEMENT_SET_NO = 999
REV_AT_EPOCH   = 88253
BSTAR          = .18706E-3
MEAN_MOTION_DOT = .722E-5
MEAN_MOTION_DDOT = 0

CCSDS_OMM_VERS = 2.0
CREATION_DATE  = 
ORIGINATOR     = 

OBJECT_NAME    = ARIANE 40 R/B
OBJECT_ID      = 1990-005H
CENTER_NAME    = EARTH
REF_FRAME      = TEME
TIME_SYSTEM    = UTC
MEAN_ELEMENT_THEORY = SGP/SGP4

EPOCH          = 2025-12-08T18:40:22.032192
MEAN_MOTION    = 14.39794841
ECCENTRICITY   = .0011196
INCLINATION    = 98.3247
RA_OF_ASC_NODE = 41.0678
ARG_OF_PERICENTER = 116.5051
MEAN_ANOMALY   = 243.7287

EPHEMERIS_TYPE = 0
CLASSIFICATION_TYPE = U
NORAD_CAT_ID   = 20443
ELEMENT_SET_NO = 999
REV_AT_EPOCH   = 87972
BSTAR          = .23251E-3
MEAN_MOTION_DOT = .687E-5
MEAN_MOTION_DDOT = 0

