COSMOS 1933             
1 18958U 88020A   25342.72945477  .00006599  00000+0  33186-3 0  9992
2 18958  82.5135 340.8412 0005477 138.9251 221.2395 15.17060469 36430
SL-3 R/B                
1 19046U 88032B   25342.84239392  .00008215  00000+0  39586-3 0  9996
2 19046  97.5081 321.5896 0026293 186.5974 173.4917 15.18681148 38318
SL-16 R/B               
1 19120U 88039B   25342.80101830  .00000196  00000+0  11554-3 0  9992
2 19120  71.0153 260.7261 0019814 122.9535 237.3499 14.19596203945483
COSMOS 1953             
1 19210U 88050A   25342.77233088  .00008920  00000+0  33586-3 0  9994
2 19210  82.5091 249.5616 0013860  83.5354 276.7462 15.26867988 23907
SL-8 R/B                
1 19257U 88053B   25342.85519102  .00000565  00000+0  19180-3 0  9992
2 19257  74.0477 279.8786 0019073 125.4678 295.4528 14.38855953963537
COSMOS 1975             
1 19573U 88093A   25342.65095520  .00010475  00000+0  40060-3 0  9990
2 19573  82.5201 208.9217 0012673 125.2689 234.9737 15.26381495  5516
SL-14 R/B               
1 19574U 88093B   25342.81100977  .00001031  00000+0  11620-3 0  9990
2 19574  82.5301 127.3540 0020268 342.8467 131.4697 14.85543146987546
SL-16 R/B               
1 19650U 88102B   25342.71474723 -.00000138  00000+0 -45808-4 0  9993
2 19650  70.9998 342.9125 0013125 158.7434 201.4237 14.16136600914017
INTERCOSMOS 24          
1 20261U 89080A   25342.77184227  .00001725  00000+0  50217-3 0  9992
2 20261  82.6044 163.5327 1188777 143.7215 225.0786 12.59429308655353
SL-14 R/B               
1 20262U 89080C   25342.74403156  .00000763  00000+0  22430-3 0  9992
2 20262  82.5934 231.5853 1230717  32.7176 334.4381 12.50409304648786
DELTA 1 R/B             
1 20323U 89089B   25342.63892742  .00000722  00000+0  18706-3 0  9996
2 20323  97.0756 199.5264 0070355  51.0398 309.7041 14.50567796882538
ARIANE 40 R/B           
1 20443U 90005H   25342.77803278  .00000687  00000+0  23251-3 0  9991
2 20443  98.3247  41.0678 0011196 116.5051 243.7287 14.39794841879727
